NORAD_CAT_ID,OBJECT_NAME,OBJECT_TYPE,EPOCH,MEAN_MOTION,ECCENTRICITY,INCLINATION,RA_OF_ASC_NODE,ARG_OF_PERICENTER,MEAN_ANOMALY,BSTAR,MEAN_MOTION_DOT,MEAN_MOTION_DDOT,TLE_LINE0,TLE_LINE1,TLE_LINE2,SEMIMAJOR_AXIS,PERIOD,APOGEE,PERIGEE,DECAYED
53803.0,STARLINK-4727,PAYLOAD,2024-04-04 11:24:07,15.08850038,0.0001699,53.2153,170.5063,101.7258,258.3925,0.00012215,1.657e-05,0.0,0 STARLINK-4727,1 53803U 22111AG  24095.47508919  .00001657  00000-0  12215-3 0  9992,2 53803  53.2153 170.5063 0001699 101.7258 258.3925 15.08850038 87716,6917.85,95.437,540.89,538.539,0.0
53803.0,STARLINK-4727,PAYLOAD,2024-04-05 04:53:22,15.08847647,0.0001424,53.2151,167.2374,97.7725,262.3429,0.00017841,2.553e-05,0.0,0 STARLINK-4727,1 53803U 22111AG  24096.20372845  .00002553  00000-0  17841-3 0  9997,2 53803  53.2151 167.2374 0001424  97.7725 262.3429 15.08847647 87010,6917.857,95.437,540.707,538.737,0.0
53803.0,STARLINK-4727,PAYLOAD,2024-04-05 14:25:41,15.08825097,0.0001623,53.2159,165.4543,83.9988,276.1189,-0.00029293,-4.945e-05,0.0,0 STARLINK-4727,1 53803U 22111AG  24096.60117815 -.00004945  00000-0 -29293-3 0  9998,2 53803  53.2159 165.4543 0001623  83.9988 276.1189 15.08825097 87881,6917.926,95.438,540.914,538.668,0.0
53803.0,STARLINK-4727,PAYLOAD,2024-04-06 11:05:43,15.08825207,0.0001195,53.2155,161.5897,82.0794,278.0334,3.2188e-05,2.24e-06,0.0,0 STARLINK-4727,1 53803U 22111AG  24097.46230881  .00000224  00000-0  32188-4 0  9994,2 53803  53.2155 161.5897 0001195  82.0794 278.0334 15.08825207 88017,6917.926,95.438,540.617,538.964,0.0
53803.0,STARLINK-4727,PAYLOAD,2024-04-06 14:16:29,15.08826512,0.00012,53.2156,160.9943,82.4831,277.6298,8.4669e-05,1.059e-05,0.0,0 STARLINK-4727,1 53803U 22111AG  24097.59479020  .00001059  00000-0  84669-4 0  9996,2 53803  53.2156 160.9943 0001200  82.4831 277.6298 15.08826512 88032,6917.922,95.438,540.617,538.956,0.0
53803.0,STARLINK-4727,PAYLOAD,2024-04-07 10:56:30,15.08855621,0.0001227,53.2164,157.1288,75.171,284.9417,0.00093708,0.00014663,0.0,0 STARLINK-4727,1 53803U 22111AG  24098.45590968  .00014663  00000-0  93708-3 0  9995,2 53803  53.2164 157.1288 0001227  75.1710 284.9417 15.08855621 88166,6917.833,95.437,540.546,538.849,0.0
53803.0,STARLINK-4727,PAYLOAD,2024-04-07 20:28:49,15.08861193,0.000113,53.2151,155.3449,74.0017,286.11,0.00070481,0.00010953,0.0,0 STARLINK-4727,1 53803U 22111AG  24098.85334510  .00010953  00000-0  70481-3 0  9999,2 53803  53.2151 155.3449 0001130  74.0017 286.1100 15.08861193 88223,6917.816,95.436,540.462,538.899,0.0
53803.0,STARLINK-4727,PAYLOAD,2024-04-08 10:47:16,15.08869326,0.0001194,53.2156,152.6686,75.8093,284.3031,0.00059113,9.14e-05,0.0,0 STARLINK-4727,1 53803U 22111AG  24099.44949561  .00009140  00000-0  59113-3 0  9998,2 53803  53.2156 152.6686 0001194  75.8093 284.3031 15.08869326 87503,6917.791,95.436,540.482,538.83,0.0
53803.0,STARLINK-4727,PAYLOAD,2024-04-08 20:19:35,15.08859115,0.000115,53.2149,150.8857,78.3009,281.8112,0.0001787,2.559e-05,0.0,0 STARLINK-4727,1 53803U 22111AG  24099.84693304  .00002559  00000-0  17870-3 0  9994,2 53803  53.2149 150.8857 0001150  78.3009 281.8112 15.08859115 87565,6917.822,95.436,540.483,538.891,0.0
53803.0,STARLINK-4727,PAYLOAD,2024-04-09 09:02:40,15.08843687,0.0001565,53.2158,148.5045,79.1978,280.919,-0.00014483,-2.593e-05,0.0,0 STARLINK-4727,1 53803U 22111AG  24100.37685631 -.00002593  00000-0 -14483-3 0  9996,2 53803  53.2158 148.5045 0001565  79.1978 280.9190 15.08843687 87644,6917.869,95.437,540.817,538.651,0.0
53803.0,STARLINK-4727,PAYLOAD,2024-04-09 20:10:22,15.08846768,0.000165,53.2163,146.4229,79.5836,280.5342,1.6785e-05,-2.1e-07,0.0,0 STARLINK-4727,1 53803U 22111AG  24100.84053559 -.00000021  00000-0  16785-4 0  9997,2 53803  53.2163 146.4229 0001650  79.5836 280.5342 15.08846768 88529,6917.86,95.437,540.866,538.583,0.0
53803.0,STARLINK-4727,PAYLOAD,2024-04-10 12:04:13,15.08850731,0.0001692,53.2169,143.4497,83.9682,276.1503,0.00016842,2.394e-05,0.0,0 STARLINK-4727,1 53803U 22111AG  24101.50293179  .00002394  00000-0  16842-3 0  9992,2 53803  53.2169 143.4497 0001692  83.9682 276.1503 15.08850731 87819,6917.848,95.437,540.883,538.542,0.0
53803.0,STARLINK-4727,PAYLOAD,2024-04-10 20:01:09,15.08844859,0.0001435,53.215,141.9622,81.4232,278.6922,9.6364e-05,1.246e-05,0.0,0 STARLINK-4727,1 53803U 22111AG  24101.83413298  .00001246  00000-0  96364-4 0  9997,2 53803  53.2150 141.9622 0001435  81.4232 278.6922 15.08844859 88672,6917.866,95.437,540.723,538.738,0.0
53803.0,STARLINK-4727,PAYLOAD,2024-04-11 08:44:14,15.08837362,0.0001397,53.2147,139.5814,89.3835,270.7318,7.2653e-05,8.68e-06,0.0,0 STARLINK-4727,1 53803U 22111AG  24102.36405758  .00000868  00000-0  72653-4 0  9992,2 53803  53.2147 139.5814 0001397  89.3835 270.7318 15.08837362 87949,6917.888,95.438,540.72,538.787,0.0
53803.0,STARLINK-4727,PAYLOAD,2024-04-12 11:45:47,15.0884459,0.0001501,53.2152,134.5249,97.8422,262.274,0.00017772,2.542e-05,0.0,0 STARLINK-4727,1 53803U 22111AG  24103.49013442  .00002542  00000-0  17772-3 0  9993,2 53803  53.2152 134.5249 0001501  97.8422 262.2740 15.08844590 88111,6917.866,95.437,540.77,538.693,0.0
53803.0,STARLINK-4727,PAYLOAD,2024-04-13 05:15:02,15.08837767,0.0001425,53.2149,131.2536,96.7197,263.3957,0.00010661,1.409e-05,0.0,0 STARLINK-4727,1 53803U 22111AG  24104.21877891  .00001409  00000-0  10661-3 0  9991,2 53803  53.2149 131.2536 0001425  96.7197 263.3957 15.08837767 88224,6917.887,95.438,540.738,538.766,0.0
53803.0,STARLINK-4727,PAYLOAD,2024-04-13 11:36:34,15.08839149,0.0001598,53.2159,130.0649,101.0592,259.058,8.4034e-05,1.05e-05,0.0,0 STARLINK-4727,1 53803U 22111AG  24104.48373835  .00001050  00000-0  84034-4 0  9997,2 53803  53.2159 130.0649 0001598 101.0592 259.0580 15.08839149 89071,6917.883,95.438,540.853,538.643,0.0
53803.0,STARLINK-4727,PAYLOAD,2024-04-14 08:16:35,15.08841671,0.0001578,53.2166,126.1987,97.9893,262.1278,8.1166e-05,1.004e-05,0.0,0 STARLINK-4727,1 53803U 22111AG  24105.34485778  .00001004  00000-0  81166-4 0  9995,2 53803  53.2166 126.1987 0001578  97.9893 262.1278 15.08841671 88391,6917.875,95.437,540.832,538.649,0.0
53803.0,STARLINK-4727,PAYLOAD,2024-04-15 08:07:23,15.08839528,0.0001545,53.2165,121.7389,96.1526,263.9642,9.656e-05,1.249e-05,0.0,0 STARLINK-4727,1 53803U 22111AG  24106.33846081  .00001249  00000-0  96560-4 0  9998,2 53803  53.2165 121.7389 0001545  96.1526 263.9642 15.08839528 88544,6917.882,95.438,540.816,538.678,0.0
53803.0,STARLINK-4727,PAYLOAD,2024-04-16 07:58:10,15.08840006,0.0001537,53.2165,117.2821,100.7947,259.3218,7.0754e-05,8.38e-06,0.0,0 STARLINK-4727,1 53803U 22111AG  24107.33206325  .00000838  00000-0  70754-4 0  9990,2 53803  53.2165 117.2821 0001537 100.7947 259.3218 15.08840006 89503,6917.88,95.438,540.809,538.682,0.0
53803.0,STARLINK-4727,PAYLOAD,2024-04-17 04:38:10,15.08848147,0.000155,53.2169,113.4166,101.3967,258.7199,0.00014355,1.998e-05,0.0,0 STARLINK-4727,1 53803U 22111AG  24108.19317725  .00001998  00000-0  14355-3 0  9994,2 53803  53.2169 113.4166 0001550 101.3967 258.7199 15.08848147 88820,6917.855,95.437,540.793,538.648,0.0
53803.0,STARLINK-4727,PAYLOAD,2024-04-17 09:24:19,15.08851581,0.0001468,53.2154,112.5234,95.7698,264.3461,0.00022178,3.245e-05,0.0,0 STARLINK-4727,1 53803U 22111AG  24108.39189513  .00003245  00000-0  22178-3 0  9997,2 53803  53.2154 112.5234 0001468  95.7698 264.3461 15.08851581 89669,6917.845,95.437,540.726,538.694,0.0
53803.0,STARLINK-4727,PAYLOAD,2024-04-18 04:28:58,15.0882991,0.0001507,53.2145,108.9538,88.602,271.5145,3.9558e-06,-2.25e-06,0.0,0 STARLINK-4727,1 53803U 22111AG  24109.18679075 -.00000225  00000-0  39558-5 0  9990,2 53803  53.2145 108.9538 0001507  88.6020 271.5145 15.08829910 88972,6917.911,95.438,540.819,538.734,0.0
53803.0,STARLINK-4727,PAYLOAD,2024-04-18 09:15:08,15.08830995,0.0001412,53.2151,108.0604,88.5722,271.5432,-3.2762e-05,-8.09e-06,0.0,0 STARLINK-4727,1 53803U 22111AG  24109.38551111 -.00000809  00000-0 -32762-4 0  9990,2 53803  53.2151 108.0604 0001412  88.5722 271.5432 15.08830995 89815,6917.908,95.438,540.75,538.796,0.0
53803.0,STARLINK-4727,PAYLOAD,2024-04-19 04:19:45,15.08847761,0.0001363,53.2163,104.4901,99.5709,260.5438,0.00014684,2.05e-05,0.0,0 STARLINK-4727,1 53803U 22111AG  24110.18038460  .00002050  00000-0  14684-3 0  9997,2 53803  53.2163 104.4901 0001363  99.5709 260.5438 15.08847761 89127,6917.857,95.437,540.665,538.779,0.0
53803.0,STARLINK-4727,PAYLOAD,2024-04-19 09:05:54,15.08851582,0.0001427,53.2154,103.598,95.5875,264.528,0.00042096,6.42e-05,0.0,0 STARLINK-4727,1 53803U 22111AG  24110.37910507  .00006420  00000-0  42096-3 0  9992,2 53803  53.2154 103.5980 0001427  95.5875 264.5280 15.08851582 89962,6917.845,95.437,540.697,538.723,0.0
53803.0,STARLINK-4727,PAYLOAD,2024-04-20 04:10:32,15.08847337,0.0001747,53.2168,100.0271,107.199,252.9194,0.00023536,3.46e-05,0.0,0 STARLINK-4727,1 53803U 22111AG  24111.17398514  .00003460  00000-0  23536-3 0  9998,2 53803  53.2168 100.0271 0001747 107.1990 252.9194 15.08847337 89277,6917.858,95.437,540.932,538.514,0.0
53803.0,STARLINK-4727,PAYLOAD,2024-04-20 05:45:55,15.08848531,0.0001756,53.2167,99.7297,105.7616,254.3569,0.00024592,3.629e-05,0.0,0 STARLINK-4727,1 53803U 22111AG  24111.24022441  .00003629  00000-0  24592-3 0  9999,2 53803  53.2167  99.7297 0001756 105.7616 254.3569 15.08848531 90098,6917.854,95.437,540.934,538.505,0.0
53803.0,STARLINK-4727,PAYLOAD,2024-04-21 04:01:21,15.08818225,0.0001956,53.2169,95.5629,134.1189,225.9965,-0.00021432,-3.695e-05,0.0,0 STARLINK-4727,1 53803U 22111AG  24112.16760507 -.00003695  00000-0 -21432-3 0  9998,2 53803  53.2169  95.5629 0001956 134.1189 225.9965 15.08818225 89422,6917.947,95.439,541.165,538.459,0.0
53803.0,STARLINK-4727,PAYLOAD,2024-04-21 05:36:45,15.08794155,0.0001505,53.2163,95.2696,64.1086,296.0061,-0.00059706,-9.766e-05,0.0,0 STARLINK-4727,1 53803U 22111AG  24112.23385969 -.00009766  00000-0 -59706-3 0  9991,2 53803  53.2163  95.2696 0001505  64.1086 296.0061 15.08794155 90248,6918.021,95.44,540.927,538.844,0.0
